{
    "links": {
        "self": "http://www.neowsapp.com/rest/v1/neo/3766053?api_key=iIulBulltgU6a56xZRHN4H3l9WmuAYTsLGpBGhQ2"
    },
    "id": "3766053",
    "neo_reference_id": "3766053",
    "name": "(2016 YG)",
    "designation": "2016 YG",
    "nasa_jpl_url": "http://ssd.jpl.nasa.gov/sbdb.cgi?sstr=3766053",
    "absolute_magnitude_h": 26.0,
    "estimated_diameter": {
        "kilometers": {
            "estimated_diameter_min": 0.0167708462,
            "estimated_diameter_max": 0.0375007522
        },
        "meters": {
            "estimated_diameter_min": 16.7708462163,
            "estimated_diameter_max": 37.5007521798
        },
        "miles": {
            "estimated_diameter_min": 0.0104209175,
            "estimated_diameter_max": 0.0233018799
        },
        "feet": {
            "estimated_diameter_min": 55.0224631002,
            "estimated_diameter_max": 123.0339677816
        }
    },
    "is_potentially_hazardous_asteroid": false,
    "close_approach_data": [
        {
            "close_approach_date": "1947-10-21",
            "close_approach_date_full": "1947-Oct-21 20:38",
            "epoch_date_close_approach": -700456920000,
            "relative_velocity": {
                "kilometers_per_second": "20.4183176052",
                "kilometers_per_hour": "73505.9433786235",
                "miles_per_hour": "45673.7346510119"
            },
            "miss_distance": {
                "astronomical": "0.4752480853",
                "lunar": "184.8715051817",
                "kilometers": "71096101.282458311",
                "miles": "44177068.8190182518"
            },
            "orbiting_body": "Earth"
        },
        {
            "close_approach_date": "2016-12-21",
            "close_approach_date_full": "2016-Dec-21 15:41",
            "epoch_date_close_approach": 1482334860000,
            "relative_velocity": {
                "kilometers_per_second": "7.4456489949",
                "kilometers_per_hour": "26804.3363815638",
                "miles_per_hour": "16655.1722366444"
            },
            "miss_distance": {
                "astronomical": "0.0300644197",
                "lunar": "11.6950592633",
                "kilometers": "4497573.149906039",
                "miles": "2794662.3651357782"
            },
            "orbiting_body": "Earth"
        },
        {
            "close_approach_date": "2028-02-05",
            "close_approach_date_full": "2028-Feb-05 12:51",
            "epoch_date_close_approach": 1833367860000,
            "relative_velocity": {
                "kilometers_per_second": "18.7288796854",
                "kilometers_per_hour": "67423.9668674929",
                "miles_per_hour": "41894.6309683041"
            },
            "miss_distance": {
                "astronomical": "0.4184623513",
                "lunar": "162.7818546557",
                "kilometers": "62601076.429671731",
                "miles": "38898505.1457466478"
            },
            "orbiting_body": "Earth"
        },
        {
            "close_approach_date": "2122-02-11",
            "close_approach_date_full": "2122-Feb-11 12:31",
            "epoch_date_close_approach": 4800256260000,
            "relative_velocity": {
                "kilometers_per_second": "20.9480803893",
                "kilometers_per_hour": "75413.0894014868",
                "miles_per_hour": "46858.7610228294"
            },
            "miss_distance": {
                "astronomical": "0.4964709331",
                "lunar": "193.1271929759",
                "kilometers": "74270994.108672497",
                "miles": "46149855.7418825786"
            },
            "orbiting_body": "Earth"
        },
        {
            "close_approach_date": "2182-10-29",
            "close_approach_date_full": "2182-Oct-29 17:20",
            "epoch_date_close_approach": 6716193600000,
            "relative_velocity": {
                "kilometers_per_second": "18.832051138",
                "kilometers_per_hour": "67795.3840967024",
                "miles_per_hour": "42125.4151905316"
            },
            "miss_distance": {
                "astronomical": "0.4232254935",
                "lunar": "164.6347169715",
                "kilometers": "63313632.357298845",
                "miles": "39341266.868040261"
            },
            "orbiting_body": "Earth"
        }
    ],
    "orbital_data": {
        "orbit_id": "6",
        "orbit_determination_date": "2017-04-06 08:21:27",
        "first_observation_date": "2016-12-18",
        "last_observation_date": "2016-12-27",
        "data_arc_in_days": 9,
        "observations_used": 52,
        "orbit_uncertainty": "7",
        "minimum_orbit_intersection": ".0222256",
        "jupiter_tisserand_invariant": "3.705",
        "epoch_osculation": "2459000.5",
        "eccentricity": ".4893903419565958",
        "semi_major_axis": "1.970157444064635",
        "inclination": "7.566959550461655",
        "ascending_node_longitude": "265.3060127902401",
        "orbital_period": "1010.066175153281",
        "perihelion_distance": "1.005981418805511",
        "perihelion_argument": "180.0628118125937",
        "aphelion_distance": "2.93433346932376",
        "perihelion_time": "2458751.444351397065",
        "mean_anomaly": "88.7664944165173",
        "mean_motion": ".356412291447507",
        "equinox": "J2000",
        "orbit_class": {
            "orbit_class_type": "APO",
            "orbit_class_description": "Near-Earth asteroid orbits which cross the Earth’s orbit similar to that of 1862 Apollo",
            "orbit_class_range": "a (semi-major axis) > 1.0 AU; q (perihelion) < 1.017 AU"
        }
    },
    "is_sentry_object": false
}